{
  "norad_id": 47672,
  "name": "STARLINK-2065",
  "history": [
    {
      "epoch": "2026-03-28T17:13:26.910912Z",
      "apogee_km": 351.2755530444001,
      "perigee_km": 346.6540341122118,
      "latitude_deg": 2.2913793423288044e-05,
      "longitude_deg": -169.51861795215737,
      "height_km": 350.32159425894605,
      "semi_major_axis_km": 6727.101793578306,
      "eccentricity": 0.0003435,
      "inclination_deg": 53.1501,
      "raan_deg": 274.9776,
      "arg_perigee_deg": 101.1331,
      "mean_anomaly_deg": 259.0075,
      "mean_motion_rev_day": 15.73478318
    }
  ]
}