{"fetched_at":"2026-03-30T13:17:50Z","count":15418,"tles":[{"name":"STARLINK-2065","line1":"1 47672U 21012BE  26087.71767258  .00146387  00000+0  10169-2 0  9995","line2":"2 47672  53.1501 274.9776 0003435 101.1331 259.0075 15.73478318283851","category":"Starlink"}]}